[{"OBJECT_NAME":"FLOCK 4G-27","OBJECT_ID":"2025-009AJ","EPOCH":"2026-03-09T18:05:51.175392","MEAN_MOTION":15.27199247,"ECCENTRICITY":7.564e-5,"INCLINATION":97.3976,"RA_OF_ASC_NODE":150.8631,"ARG_OF_PERICENTER":322.4974,"MEAN_ANOMALY":37.6212,"EPHEMERIS_TYPE":0,"CLASSIFICATION_TYPE":"U","NORAD_CAT_ID":62641,"ELEMENT_SET_NO":999,"REV_AT_EPOCH":6371,"BSTAR":0.00047455305,"MEAN_MOTION_DOT":0.00012587,"MEAN_MOTION_DDOT":0},{"OBJECT_NAME":"STARLINK-36145","OBJECT_ID":"2025-288AA","EPOCH":"2026-03-09T06:48:23.435712","MEAN_MOTION":15.27593375,"ECCENTRICITY":0.00016823,"INCLINATION":43.0036,"RA_OF_ASC_NODE":25.8836,"ARG_OF_PERICENTER":255.2331,"MEAN_ANOMALY":104.8334,"EPHEMERIS_TYPE":0,"CLASSIFICATION_TYPE":"U","NORAD_CAT_ID":66983,"ELEMENT_SET_NO":999,"REV_AT_EPOCH":1522,"BSTAR":0.0010532077,"MEAN_MOTION_DOT":0.00028845,"MEAN_MOTION_DDOT":0}]
